H1 CPF 01  gfz 2022 08 24 00  7361 tandemx   
H2 1003001  6202 36605    2022 08 24 00 59 42 2022 08 29 00 00 42   120 1 1  0 0 0
H9
10 0 59815  86382.000000  0      69164.507  -6888702.616   -102374.133
10 0 59816    102.000000  0    -109033.539  -6840983.372    801050.139
10 0 59816    222.000000  0    -283415.993  -6670595.768   1690370.719
10 0 59816    342.000000  0    -448813.647  -6380601.616   2549923.342
10 0 59816    462.000000  0    -600287.529  -5976266.059   3364569.392
10 0 59816    582.000000  0    -733253.743  -5464953.633   4119969.785
10 0 59816    702.000000  0    -843600.131  -4855985.613   4802840.338
10 0 59816    822.000000  0    -927791.017  -4160460.526   5401186.618
10 0 59816    942.000000  0    -982957.491  -3391042.562   5904513.911
10 0 59816   1062.000000  0   -1006971.901  -2561720.539   6304007.901
10 0 59816   1182.000000  0    -998504.059  -1687546.349   6592681.237
10 0 59816   1302.000000  0    -957059.139   -784359.253   6765489.526
10 0 59816   1422.000000  0    -882997.541    131503.007   6819415.154
10 0 59816   1542.000000  0    -777535.134   1043499.967   6753516.690
10 0 59816   1662.000000  0    -642722.918   1935186.843   6568944.543
10 0 59816   1782.000000  0    -481407.355   2790510.663   6268921.972
10 0 59816   1902.000000  0    -297172.211   3594099.497   5858692.378
10 0 59816   2022.000000  0     -94263.198   4331541.257   5345432.733
10 0 59816   2142.000000  0     122504.118   4989646.301   4738134.075
10 0 59816   2262.000000  0     347851.611   5556691.679   4047449.809
10 0 59816   2382.000000  0     576158.138   6022636.465   3285511.037
10 0 59816   2502.000000  0     801589.175   6379311.089   2465720.260
10 0 59816   2622.000000  0    1018236.088   6620574.208   1602510.081
10 0 59816   2742.000000  0    1220257.597   6742423.913    711083.572
10 0 59816   2862.000000  0    1402022.224   6743068.319   -192861.000
10 0 59816   2982.000000  0    1558247.598   6622951.406  -1093414.872
10 0 59816   3102.000000  0    1684132.313   6384734.118  -1974746.685
10 0 59816   3222.000000  0    1775477.867   6033232.172  -2821387.810
10 0 59816   3342.000000  0    1828797.500   5575311.429  -3618509.471
10 0 59816   3462.000000  0    1841409.323   5019743.299  -4352185.354
10 0 59816   3582.000000  0    1811511.534   4377024.301  -5009633.362
10 0 59816   3702.000000  0    1738237.958   3659166.553  -5579432.089
10 0 59816   3822.000000  0    1621693.873   2879464.932  -6051710.720
10 0 59816   3942.000000  0    1462970.451   2052244.317  -6418309.383
10 0 59816   4062.000000  0    1264138.917   1192594.573  -6672907.807
10 0 59816   4182.000000  0    1028225.093    316097.378  -6811124.507
10 0 59816   4302.000000  0     759163.419   -561452.266  -6830584.176
10 0 59816   4422.000000  0     461731.821  -1424324.879  -6730952.832
10 0 59816   4542.000000  0     141469.028  -2257130.268  -6513941.616
10 0 59816   4662.000000  0    -195424.984  -3045084.580  -6183282.368
10 0 59816   4782.000000  0    -542205.475  -3774269.952  -5744671.022
10 0 59816   4902.000000  0    -891712.765  -4431878.838  -5205678.728
10 0 59816   5022.000000  0   -1236514.590  -5006441.789  -4575633.259
10 0 59816   5142.000000  0   -1569059.228  -5488034.361  -3865468.845
10 0 59816   5262.000000  0   -1881836.017  -5868457.945  -3087545.764
10 0 59816   5382.000000  0   -2167539.697  -6141390.358  -2255442.238
10 0 59816   5502.000000  0   -2419235.258  -6302503.075  -1383721.202
10 0 59816   5622.000000  0   -2630519.161  -6349541.340   -487674.684
10 0 59816   5742.000000  0   -2795672.835  -6282363.141    416949.478
10 0 59816   5862.000000  0   -2909803.916  -6102935.171   1314231.838
10 0 59816   5982.000000  0   -2968971.627  -5815286.332   2188370.418
10 0 59816   6102.000000  0   -2970292.861  -5425419.039   3023968.164
10 0 59816   6222.000000  0   -2912025.966  -4941181.241   3806311.768
10 0 59816   6342.000000  0   -2793630.332  -4372102.887   4521636.077
10 0 59816   6462.000000  0   -2615801.321  -3729201.101   5157368.902
10 0 59816   6582.000000  0   -2380479.324  -3024758.512   5702352.107
10 0 59816   6702.000000  0   -2090831.832  -2272080.871   6147033.861
10 0 59816   6822.000000  0   -1751210.538  -1485241.024   6483631.290
10 0 59816   6942.000000  0   -1367083.868   -678811.661   6706261.991
10 0 59816   7062.000000  0    -944947.140    132407.736   6811039.304
10 0 59816   7182.000000  0    -492212.972    933661.283   6796135.134
10 0 59816   7302.000000  0     -17081.156   1710504.606   6661810.798
10 0 59816   7422.000000  0     471609.805   2449065.182   6410412.783
10 0 59816   7542.000000  0     964546.649   3136289.933   6046333.731
10 0 59816   7662.000000  0    1452117.658   3760177.158   5575940.673
10 0 59816   7782.000000  0    1924599.019   4309989.962   5007469.602
10 0 59816   7902.000000  0    2372348.944   4776447.060   4350887.350
10 0 59816   8022.000000  0    2786004.947   5151885.704   3617720.676
10 0 59816   8142.000000  0    3156679.596   5430394.200   2820858.245
10 0 59816   8262.000000  0    3476153.349   5607914.860   1974324.219
10 0 59816   8382.000000  0    3737056.048   5682306.449   1093025.515
10 0 59816   8502.000000  0    3933032.278   5653368.826    192483.705
10 0 59816   8622.000000  0    4058889.091   5522827.880   -711447.168
10 0 59816   8742.000000  0    4110720.339   5294280.852  -1602867.790
10 0 59816   8862.000000  0    4086005.560   4973105.160  -2466121.062
10 0 59816   8982.000000  0    3983679.919   4566331.988  -3286073.767
10 0 59816   9102.000000  0    3804173.560   4082488.018  -4048385.730
10 0 59816   9222.000000  0    3549420.959   3531410.734  -4739759.693
10 0 59816   9342.000000  0    3222841.052   2924042.704  -5348169.714
10 0 59816   9462.000000  0    2829287.305   2272208.671  -5863063.278
10 0 59816   9582.000000  0    2374970.877   1588381.888  -6275534.345
10 0 59816   9702.000000  0    1867358.211    885444.148  -6578465.664
10 0 59816   9822.000000  0    1315046.855    176445.347  -6766639.317
10 0 59816   9942.000000  0     727620.621   -525634.249  -6836818.675
10 0 59816  10062.000000  0     115484.334  -1208117.160  -6787797.485
10 0 59816  10182.000000  0    -510315.917  -1858851.117  -6620416.736
10 0 59816  10302.000000  0   -1138286.575  -2466419.431  -6337552.916
10 0 59816  10422.000000  0   -1756692.952  -3020338.533  -5944074.412
10 0 59816  10542.000000  0   -2353773.233  -3511237.306  -5446766.006
10 0 59816  10662.000000  0   -2917958.756  -3931017.342  -4854224.155
10 0 59816  10782.000000  0   -3438098.221  -4272991.829  -4176720.164
10 0 59816  10902.000000  0   -3903679.332  -4531998.152  -3426031.896
10 0 59816  11022.000000  0   -4305044.049  -4704482.666  -2615247.389
10 0 59816  11142.000000  0   -4633593.011  -4788555.015  -1758541.379
10 0 59816  11262.000000  0   -4881973.533  -4784009.988   -870928.528
10 0 59816  11382.000000  0   -5044246.160  -4692315.921     32002.317
10 0 59816  11502.000000  0   -5116025.440  -4516569.685    934367.935
10 0 59816  11622.000000  0   -5094590.251  -4261417.773   1820279.291
10 0 59816  11742.000000  0   -4978959.957  -3932945.044   2674130.925
10 0 59816  11862.000000  0   -4769935.146  -3538534.785   3480884.166
10 0 59816  11982.000000  0   -4470102.317  -3086704.176   4226338.607
10 0 59816  12102.000000  0   -4083801.596  -2586918.480   4897386.680
10 0 59816  12222.000000  0   -3617059.168  -2049389.664   5482243.789
10 0 59816  12342.000000  0   -3077488.338  -1484865.802   5970652.554
10 0 59816  12462.000000  0   -2474159.937   -904414.208   6354059.956
10 0 59816  12582.000000  0   -1817443.644   -319201.615   6625762.310
10 0 59816  12702.000000  0   -1118824.566    259721.606   6781014.977
10 0 59816  12822.000000  0    -390700.927    821628.258   6817109.203
10 0 59816  12942.000000  0     353835.806   1356312.325   6733416.684
10 0 59816  13062.000000  0    1101235.749   1854274.225   6531400.087
10 0 59816  13182.000000  0    1837736.674   2306889.804   6214588.395
10 0 59816  13302.000000  0    2549616.530   2706559.791   5788519.060
10 0 59816  13422.000000  0    3223450.030   3046839.362   5260647.895
10 0 59816  13542.000000  0    3846365.349   3322545.214   4640224.253
10 0 59816  13662.000000  0    4406292.686   3529836.923   3938133.414
10 0 59816  13782.000000  0    4892204.670   3666272.361   3166712.077
10 0 59816  13902.000000  0    5294341.972   3730835.485   2339530.540
10 0 59816  14022.000000  0    5604414.532   3723932.924   1471151.832
10 0 59816  14142.000000  0    5815777.216   3647362.480    576870.340
10 0 59816  14262.000000  0    5923573.778   3504252.220   -327565.688
10 0 59816  14382.000000  0    5924844.790   3298971.758  -1226240.277
10 0 59816  14502.000000  0    5818597.592   3037018.398  -2103358.363
10 0 59816  14622.000000  0    5605835.796   2724881.633  -2943530.141
10 0 59816  14742.000000  0    5289549.490   2369889.649  -3732045.612
10 0 59816  14862.000000  0    4874667.022   1980041.167  -4455134.134
10 0 59816  14982.000000  0    4367967.178   1563826.837  -5100203.587
10 0 59816  15102.000000  0    3777957.575   1130045.879  -5656052.176
10 0 59816  15222.000000  0    3114723.192    687622.630  -6113053.973
10 0 59816  15342.000000  0    2389746.635    245425.749  -6463314.935
10 0 59816  15462.000000  0    1615705.746   -187905.524  -6700797.125
10 0 59816  15582.000000  0     806252.946   -604125.814  -6821413.171
10 0 59816  15702.000000  0     -24223.711   -995536.616  -6823089.470
10 0 59816  15822.000000  0    -860850.817  -1355124.309  -6705796.188
10 0 59816  15942.000000  0   -1688528.994  -1676682.304  -6471548.453
10 0 59816  16062.000000  0   -2492199.559  -1954916.416  -6124375.640
10 0 59816  16182.000000  0   -3257112.301  -2185530.813  -5670258.753
10 0 59816  16302.000000  0   -3969092.752  -2365294.959  -5117039.196
10 0 59816  16422.000000  0   -4614806.694  -2492089.896  -4474295.281
99
